NORAD_CAT_ID,OBJECT_NAME,OBJECT_TYPE,EPOCH,MEAN_MOTION,ECCENTRICITY,INCLINATION,RA_OF_ASC_NODE,ARG_OF_PERICENTER,MEAN_ANOMALY,BSTAR,MEAN_MOTION_DOT,MEAN_MOTION_DDOT,TLE_LINE0,TLE_LINE1,TLE_LINE2,SEMIMAJOR_AXIS,PERIOD,APOGEE,PERIGEE,DECAYED
49761.0,STARLINK-3203,PAYLOAD,2023-05-02 11:16:02,15.08841775,0.0001392,53.2159,137.8237,92.9828,267.1324,9.9206e-05,1.291e-05,0.0,0 STARLINK-3203,1 49761U 21115AP  23122.46947613  .00001291  00000-0  99206-4 0  9990,2 49761  53.2159 137.8237 0001392  92.9828 267.1324 15.08841775 78330,6917.875,95.437,540.703,538.777,0.0
49761.0,STARLINK-3203,PAYLOAD,2023-05-02 17:37:35,15.08836851,0.0001392,53.2163,136.6333,82.2248,277.8902,7.3158e-05,8.76e-06,0.0,0 STARLINK-3203,1 49761U 21115AP  23122.73444084  .00000876  00000-0  73158-4 0  9990,2 49761  53.2163 136.6333 0001392  82.2248 277.8902 15.08836851 79483,6917.89,95.438,540.718,538.792,0.0
49761.0,STARLINK-3203,PAYLOAD,2023-05-03 09:31:27,15.0883499,0.0001404,53.2164,133.6601,89.3567,270.7586,4.433e-05,4.18e-06,0.0,0 STARLINK-3203,1 49761U 21115AP  23123.39684461  .00000418  00000-0  44330-4 0  9990,2 49761  53.2164 133.6601 0001404  89.3567 270.7586 15.08834990 78475,6917.896,95.438,540.732,538.789,0.0
49761.0,STARLINK-3203,PAYLOAD,2023-05-04 01:25:18,15.08838042,0.0001376,53.2163,130.6864,94.982,265.1329,3.249e-05,2.29e-06,0.0,0 STARLINK-3203,1 49761U 21115AP  23124.05924366  .00000229  00000-0  32490-4 0  9999,2 49761  53.2163 130.6864 0001376  94.9820 265.1329 15.08838042 79683,6917.886,95.438,540.703,538.799,0.0
49761.0,STARLINK-3203,PAYLOAD,2023-05-04 09:22:14,15.08839855,0.0001413,53.2165,129.1994,89.3306,270.7848,4.6822e-05,4.57e-06,0.0,0 STARLINK-3203,1 49761U 21115AP  23124.39044273  .00000457  00000-0  46822-4 0  9993,2 49761  53.2165 129.1994 0001413  89.3306 270.7848 15.08839855 78625,6917.881,95.438,540.723,538.768,0.0
49761.0,STARLINK-3203,PAYLOAD,2023-05-05 09:13:01,15.08842518,0.0001296,53.2158,124.7381,94.1549,265.9591,9.8047e-05,1.273e-05,0.0,0 STARLINK-3203,1 49761U 21115AP  23125.38404049  .00001273  00000-0  98047-4 0  9997,2 49761  53.2158 124.7381 0001296  94.1549 265.9591 15.08842518 79880,6917.873,95.437,540.634,538.841,0.0
49761.0,STARLINK-3203,PAYLOAD,2023-05-05 17:09:57,15.08836939,0.0001384,53.2162,123.2514,89.6289,270.4862,4.9494e-05,5e-06,0.0,0 STARLINK-3203,1 49761U 21115AP  23125.71524610  .00000500  00000-0  49494-4 0  9995,2 49761  53.2162 123.2514 0001384  89.6289 270.4862 15.08836939 78820,6917.89,95.438,540.712,538.797,0.0
49761.0,STARLINK-3203,PAYLOAD,2023-05-05 23:31:29,15.08837438,0.0001372,53.2161,122.0618,90.8374,269.2776,3.0653e-05,2e-06,0.0,0 STARLINK-3203,1 49761U 21115AP  23125.98020701  .00000200  00000-0  30653-4 0  9990,2 49761  53.2161 122.0618 0001372  90.8374 269.2776 15.08837438 79979,6917.888,95.438,540.702,538.804,0.0
49761.0,STARLINK-3203,PAYLOAD,2023-05-06 09:03:48,15.08840449,0.0001339,53.2161,120.2774,92.5309,267.5836,5.4237e-05,5.75e-06,0.0,0 STARLINK-3203,1 49761U 21115AP  23126.37764535  .00000575  00000-0  54237-4 0  9993,2 49761  53.2161 120.2774 0001339  92.5309 267.5836 15.08840449 78920,6917.879,95.438,540.67,538.818,0.0
49761.0,STARLINK-3203,PAYLOAD,2023-05-07 05:43:48,15.08845671,0.0001329,53.2162,116.4116,92.382,267.7324,6.73e-05,7.83e-06,0.0,0 STARLINK-3203,1 49761U 21115AP  23127.23876130  .00000783  00000-0  67300-4 0  9990,2 49761  53.2162 116.4116 0001329  92.3820 267.7324 15.08845671 80168,6917.863,95.437,540.647,538.809,0.0
49761.0,STARLINK-3203,PAYLOAD,2023-05-07 16:51:31,15.08838685,0.0001292,53.2172,114.3297,93.2966,266.8173,4.5677e-05,4.39e-06,0.0,0 STARLINK-3203,1 49761U 21115AP  23127.70244587  .00000439  00000-0  45677-4 0  9998,2 49761  53.2172 114.3297 0001292  93.2966 266.8173 15.08838685 80233,6917.884,95.438,540.643,538.856,0.0
49761.0,STARLINK-3203,PAYLOAD,2023-05-08 10:20:45,15.08839176,0.0001306,53.2174,111.0591,92.2803,267.8339,6.2915e-05,7.14e-06,0.0,0 STARLINK-3203,1 49761U 21115AP  23128.43108657  .00000714  00000-0  62915-4 0  9996,2 49761  53.2174 111.0591 0001306  92.2803 267.8339 15.08839176 79230,6917.883,95.438,540.651,538.844,0.0
49761.0,STARLINK-3203,PAYLOAD,2023-05-09 10:11:32,15.08850642,0.000131,53.2179,106.5997,91.5431,268.5711,0.00011055,1.472e-05,0.0,0 STARLINK-3203,1 49761U 21115AP  23129.42467677  .00001472  00000-0  11055-3 0  9996,2 49761  53.2179 106.5997 0001310  91.5431 268.5711 15.08850642 79387,6917.848,95.437,540.619,538.807,0.0
49761.0,STARLINK-3203,PAYLOAD,2023-05-10 10:02:19,15.08843342,0.0001239,53.2172,102.1404,100.9574,259.1558,9.4667e-05,1.219e-05,0.0,0 STARLINK-3203,1 49761U 21115AP  23130.41828451  .00001219  00000-0  94667-4 0  9998,2 49761  53.2172 102.1404 0001239 100.9574 259.1558 15.08843342 79539,6917.87,95.437,540.592,538.878,0.0
49761.0,STARLINK-3203,PAYLOAD,2023-05-11 05:06:57,15.08843621,0.0001112,53.2174,98.5734,109.9965,250.1147,-1.0891e-05,-4.61e-06,0.0,0 STARLINK-3203,1 49761U 21115AP  23131.21316710 -.00000461  00000-0 -10891-4 0  9994,2 49761  53.2174  98.5734 0001112 109.9965 250.1147 15.08843621 79656,6917.869,95.437,540.504,538.965,0.0
49761.0,STARLINK-3203,PAYLOAD,2023-05-11 22:36:12,15.08834387,0.0001176,53.2168,95.303,116.0691,244.0422,4.9942e-05,5.07e-06,0.0,0 STARLINK-3203,1 49761U 21115AP  23131.94181411  .00000507  00000-0  49942-4 0  9990,2 49761  53.2168  95.3030 0001176 116.0691 244.0422 15.08834387 80871,6917.898,95.438,540.576,538.949,0.0
49761.0,STARLINK-3203,PAYLOAD,2023-05-12 03:22:22,15.08836962,0.0002026,53.2165,94.4104,141.5657,218.5479,-2.6446e-05,-7.09e-06,0.0,0 STARLINK-3203,1 49761U 21115AP  23132.14053423 -.00000709  00000-0 -26446-4 0  9994,2 49761  53.2165  94.4104 0002026 141.5657 218.5479 15.08836962 79798,6917.89,95.438,541.156,538.353,0.0
49761.0,STARLINK-3203,PAYLOAD,2023-05-12 04:57:45,15.08834148,0.0001165,53.217,94.1135,113.8927,246.2187,4.1449e-05,3.72e-06,0.0,0 STARLINK-3203,1 49761U 21115AP  23132.20677571  .00000372  00000-0  41449-4 0  9991,2 49761  53.2170  94.1135 0001165 113.8927 246.2187 15.08834148 79800,6917.898,95.438,540.569,538.957,0.0
49761.0,STARLINK-3203,PAYLOAD,2023-05-12 22:26:59,15.08844091,0.0001083,53.2173,90.8424,105.4019,254.7092,0.00011035,1.469e-05,0.0,0 STARLINK-3203,1 49761U 21115AP  23132.93540898  .00001469  00000-0  11035-3 0  9997,2 49761  53.2173  90.8424 0001083 105.4019 254.7092 15.08844091 81029,6917.868,95.437,540.482,538.984,0.0
49761.0,STARLINK-3203,PAYLOAD,2023-05-13 06:23:54,15.08854769,0.0001113,53.2176,89.3552,89.7697,270.3423,0.00019196,2.77e-05,0.0,0 STARLINK-3203,1 49761U 21115AP  23133.26660067  .00002770  00000-0  19196-3 0  9997,2 49761  53.2176  89.3552 0001113  89.7697 270.3423 15.08854769 81077,6917.835,95.437,540.47,538.93,0.0
49761.0,STARLINK-3203,PAYLOAD,2023-05-14 06:14:42,15.08836787,0.000123,53.2171,84.8935,86.0107,274.1025,0.00010604,1.4e-05,0.0,0 STARLINK-3203,1 49761U 21115AP  23134.26021874  .00001400  00000-0  10604-3 0  9999,2 49761  53.2171  84.8935 0001230  86.0107 274.1025 15.08836787 81220,6917.89,95.438,540.606,538.904,0.0
49761.0,STARLINK-3203,PAYLOAD,2023-05-15 01:19:19,15.08852154,0.0001264,53.217,81.3246,84.7671,275.3466,0.00029292,4.379e-05,0.0,0 STARLINK-3203,1 49761U 21115AP  23135.05509159  .00004379  00000-0  29292-3 0  9995,2 49761  53.2170  81.3246 0001264  84.7671 275.3466 15.08852154 81345,6917.843,95.437,540.583,538.834,0.0
49761.0,STARLINK-3203,PAYLOAD,2023-05-15 02:54:42,15.08856104,0.0001304,53.2172,81.0269,88.2814,271.8328,0.00037664,5.714e-05,0.0,0 STARLINK-3203,1 49761U 21115AP  23135.12132996  .00005714  00000-0  37664-3 0  9990,2 49761  53.2172  81.0269 0001304  88.2814 271.8328 15.08856104 80247,6917.831,95.437,540.598,538.794,0.0
49761.0,STARLINK-3203,PAYLOAD,2023-05-16 05:56:16,15.08841406,0.0001317,53.2176,75.9714,87.0932,273.0211,4.8126e-06,-2.11e-06,0.0,0 STARLINK-3203,1 49761U 21115AP  23136.24741418 -.00000211  00000-0  48126-5 0  9994,2 49761  53.2176  75.9714 0001317  87.0932 273.0211 15.08841406 81526,6917.876,95.437,540.652,538.83,0.0
49761.0,STARLINK-3203,PAYLOAD,2023-05-17 21:40:55,15.08833684,0.0001228,53.2179,68.5387,94.0398,266.0735,2.8674e-05,1.68e-06,0.0,0 STARLINK-3203,1 49761U 21115AP  23137.90342003  .00000168  00000-0  28674-4 0  9990,2 49761  53.2179  68.5387 0001228  94.0398 266.0735 15.08833684 80664,6917.9,95.438,540.614,538.915,0.0
49761.0,STARLINK-3203,PAYLOAD,2023-05-18 02:27:04,15.08835949,0.000118,53.2183,67.6477,97.4983,262.6143,8.0094e-05,9.87e-06,0.0,0 STARLINK-3203,1 49761U 21115AP  23138.10214062  .00000987  00000-0  80094-4 0  9999,2 49761  53.2183  67.6477 0001180  97.4983 262.6143 15.08835949 81801,6917.893,95.438,540.574,538.941,0.0
49761.0,STARLINK-3203,PAYLOAD,2023-05-18 05:37:51,15.08837592,0.0001186,53.2186,67.0526,95.1363,264.9765,8.9553e-05,1.138e-05,0.0,0 STARLINK-3203,1 49761U 21115AP  23138.23461934  .00001138  00000-0  89553-4 0  9993,2 49761  53.2186  67.0526 0001186  95.1363 264.9765 15.08837592 80716,6917.888,95.438,540.573,538.932,0.0
49761.0,STARLINK-3203,PAYLOAD,2023-05-19 03:53:15,15.08835601,0.0001311,53.2188,62.8903,101.8696,258.2443,0.00023423,3.441e-05,0.0,0 STARLINK-3203,1 49761U 21115AP  23139.16197936  .00003441  00000-0  23423-3 0  9996,2 49761  53.2188  62.8903 0001311 101.8696 258.2443 15.08835601 81960,6917.894,95.438,540.666,538.852,0.0
49761.0,STARLINK-3203,PAYLOAD,2023-05-20 18:02:29,15.08845117,0.0001053,53.2186,55.7485,113.1412,246.9691,0.00011819,1.594e-05,0.0,0 STARLINK-3203,1 49761U 21115AP  23140.75173534  .00001594  00000-0  11819-3 0  9994,2 49761  53.2186  55.7485 0001053 113.1412 246.9691 15.08845117 82209,6917.865,95.437,540.458,539.001,0.0
49761.0,STARLINK-3203,PAYLOAD,2023-05-21 01:59:24,15.0886161,0.0001175,53.2182,54.2657,92.2957,267.817,0.00025939,3.845e-05,0.0,0 STARLINK-3203,1 49761U 21115AP  23141.08292663  .00003845  00000-0  25939-3 0  9995,2 49761  53.2182  54.2657 0001175  92.2957 267.8170 15.08861610 82251,6917.814,95.436,540.492,538.866,0.0
